[{"OBJECT_NAME":"STARLINK-5031","OBJECT_ID":"2022-119D","EPOCH":"2026-03-09T21:30:50.657760","MEAN_MOTION":15.08819004,"ECCENTRICITY":0.00012739,"INCLINATION":53.2167,"RA_OF_ASC_NODE":323.3437,"ARG_OF_PERICENTER":84.5556,"MEAN_ANOMALY":275.5581,"EPHEMERIS_TYPE":0,"CLASSIFICATION_TYPE":"U","NORAD_CAT_ID":53889,"ELEMENT_SET_NO":999,"REV_AT_EPOCH":19171,"BSTAR":0.00037859423,"MEAN_MOTION_DOT":5.739e-5,"MEAN_MOTION_DDOT":0},{"OBJECT_NAME":"COSMOS 2251 DEB","OBJECT_ID":"1993-036AUM","EPOCH":"2026-03-08T12:34:22.155456","MEAN_MOTION":14.96324912,"ECCENTRICITY":0.00809203,"INCLINATION":73.9894,"RA_OF_ASC_NODE":123.8265,"ARG_OF_PERICENTER":247.0296,"MEAN_ANOMALY":179.8153,"EPHEMERIS_TYPE":0,"CLASSIFICATION_TYPE":"U","NORAD_CAT_ID":35898,"ELEMENT_SET_NO":999,"REV_AT_EPOCH":68092,"BSTAR":0.00097608609,"MEAN_MOTION_DOT":0.00011776,"MEAN_MOTION_DDOT":0}]
